2019-03-27 04:30:24
2019-03-26T18:27:01.878123
2019-03-26T18:27:01.998419
2019-03-26T19:04:15
2019-03-26T06:31:57
2019-03-26_09:25:09 14.750
2019-03-26 14:30:29.149043
2019-03-25:
min:   6.2 C at 23h37m 
max:  11.9 C at 09h52m
2019-03-27 04:30:24
2019-03-26T18:27:01.878123
2019-03-26T18:27:01.998419
2019-03-26T19:04:15
2019-03-26T06:31:57
2019-03-26_09:25:09 14.750
2019-03-26 14:30:29.149043
2019-03-25:
min:   6.2 C at 23h37m 
max:  11.9 C at 09h52m
2019/03/26 17:30 LZKZ 261730Z VRB02KT CAVOK 07/M06 Q1018
2019/03/26 17:30 LZTT 261730Z 26017KT 9999 BKN056 04/M06 Q1017
